[{"OBJECT_NAME":"INTELSAT 902 (IS-902)","OBJECT_ID":"2001-039A","EPOCH":"2026-04-26T21:47:38.620896","MEAN_MOTION":1.00270761,"ECCENTRICITY":0.0004515,"INCLINATION":5.9893,"RA_OF_ASC_NODE":72.3941,"ARG_OF_PERICENTER":320.0211,"MEAN_ANOMALY":99.3035,"EPHEMERIS_TYPE":0,"CLASSIFICATION_TYPE":"U","NORAD_CAT_ID":26900,"ELEMENT_SET_NO":999,"REV_AT_EPOCH":9018,"BSTAR":0,"MEAN_MOTION_DOT":-2.9e-6,"MEAN_MOTION_DDOT":0},{"OBJECT_NAME":"INTELSAT 904 (IS-904)","OBJECT_ID":"2002-007A","EPOCH":"2026-04-26T16:50:21.696864","MEAN_MOTION":1.00269764,"ECCENTRICITY":0.00077474,"INCLINATION":6.7944,"RA_OF_ASC_NODE":69.7905,"ARG_OF_PERICENTER":338.929,"MEAN_ANOMALY":27.0697,"EPHEMERIS_TYPE":0,"CLASSIFICATION_TYPE":"U","NORAD_CAT_ID":27380,"ELEMENT_SET_NO":999,"REV_AT_EPOCH":5125,"BSTAR":0,"MEAN_MOTION_DOT":-2.33e-6,"MEAN_MOTION_DDOT":0},{"OBJECT_NAME":"DIRECTV 5 (TEMPO 1)","OBJECT_ID":"2002-023A","EPOCH":"2026-04-27T05:01:51.511872","MEAN_MOTION":1.00272048,"ECCENTRICITY":0.00034994,"INCLINATION":4.75,"RA_OF_ASC_NODE":75.9287,"ARG_OF_PERICENTER":323.3824,"MEAN_ANOMALY":141.247,"EPHEMERIS_TYPE":0,"CLASSIFICATION_TYPE":"U","NORAD_CAT_ID":27426,"ELEMENT_SET_NO":999,"REV_AT_EPOCH":8761,"BSTAR":0,"MEAN_MOTION_DOT":-6.3e-7,"MEAN_MOTION_DDOT":0},{"OBJECT_NAME":"INTELSAT 905 (IS-905)","OBJECT_ID":"2002-027A","EPOCH":"2026-04-27T00:53:37.078080","MEAN_MOTION":1.00273783,"ECCENTRICITY":0.00034934,"INCLINATION":6.628,"RA_OF_ASC_NODE":70.4041,"ARG_OF_PERICENTER":339.7055,"MEAN_ANOMALY":41.1333,"EPHEMERIS_TYPE":0,"CLASSIFICATION_TYPE":"U","NORAD_CAT_ID":27438,"ELEMENT_SET_NO":999,"REV_AT_EPOCH":5085,"BSTAR":0,"MEAN_MOTION_DOT":8.8e-7,"MEAN_MOTION_DDOT":0},{"OBJECT_NAME":"GALAXY 3C (G-3C)","OBJECT_ID":"2002-030A","EPOCH":"2026-04-27T04:22:24.292704","MEAN_MOTION":1.00271753,"ECCENTRICITY":0.00016128,"INCLINATION":3.6002,"RA_OF_ASC_NODE":78.6573,"ARG_OF_PERICENTER":24.7309,"MEAN_ANOMALY":82.5201,"EPHEMERIS_TYPE":0,"CLASSIFICATION_TYPE":"U","NORAD_CAT_ID":27445,"ELEMENT_SET_NO":999,"REV_AT_EPOCH":4598,"BSTAR":0,"MEAN_MOTION_DOT":-1.6e-6,"MEAN_MOTION_DDOT":0},{"OBJECT_NAME":"INTELSAT 906 (IS-906)","OBJECT_ID":"2002-041A","EPOCH":"2026-04-27T00:08:18.922848","MEAN_MOTION":1.00270668,"ECCENTRICITY":0.00040395,"INCLINATION":5.6741,"RA_OF_ASC_NODE":73.5351,"ARG_OF_PERICENTER":336.0928,"MEAN_ANOMALY":231.6081,"EPHEMERIS_TYPE":0,"CLASSIFICATION_TYPE":"U","NORAD_CAT_ID":27513,"ELEMENT_SET_NO":999,"REV_AT_EPOCH":8651,"BSTAR":0,"MEAN_MOTION_DOT":7.0e-8,"MEAN_MOTION_DDOT":0},{"OBJECT_NAME":"GALAXY 13 (HORIZONS-1)","OBJECT_ID":"2003-044A","EPOCH":"2026-04-27T00:49:59.924640","MEAN_MOTION":1.00273581,"ECCENTRICITY":0.00022058,"INCLINATION":1.2871,"RA_OF_ASC_NODE":84.4613,"ARG_OF_PERICENTER":314.6722,"MEAN_ANOMALY":38.3979,"EPHEMERIS_TYPE":0,"CLASSIFICATION_TYPE":"U","NORAD_CAT_ID":27954,"ELEMENT_SET_NO":999,"REV_AT_EPOCH":4605,"BSTAR":0,"MEAN_MOTION_DOT":1.23e-6,"MEAN_MOTION_DDOT":0},{"OBJECT_NAME":"INTELSAT 10-02","OBJECT_ID":"2004-022A","EPOCH":"2026-04-27T05:20:38.796864","MEAN_MOTION":1.00270002,"ECCENTRICITY":0.00012665,"INCLINATION":0.0153,"RA_OF_ASC_NODE":73.7645,"ARG_OF_PERICENTER":0.9311,"MEAN_ANOMALY":219.6436,"EPHEMERIS_TYPE":0,"CLASSIFICATION_TYPE":"U","NORAD_CAT_ID":28358,"ELEMENT_SET_NO":999,"REV_AT_EPOCH":8004,"BSTAR":0,"MEAN_MOTION_DOT":0,"MEAN_MOTION_DDOT":0},{"OBJECT_NAME":"DIRECTV 8","OBJECT_ID":"2005-019A","EPOCH":"2026-04-27T04:31:25.199040","MEAN_MOTION":1.00271122,"ECCENTRICITY":0.00032709,"INCLINATION":0.0127,"RA_OF_ASC_NODE":229.7537,"ARG_OF_PERICENTER":174.6363,"MEAN_ANOMALY":119.5929,"EPHEMERIS_TYPE":0,"CLASSIFICATION_TYPE":"U","NORAD_CAT_ID":28659,"ELEMENT_SET_NO":999,"REV_AT_EPOCH":7656,"BSTAR":0,"MEAN_MOTION_DOT":0,"MEAN_MOTION_DDOT":0},{"OBJECT_NAME":"GALAXY 28 (G-28)","OBJECT_ID":"2005-022A","EPOCH":"2026-04-27T05:36:38.689632","MEAN_MOTION":1.00267456,"ECCENTRICITY":0.0003209,"INCLINATION":3.17,"RA_OF_ASC_NODE":79.5407,"ARG_OF_PERICENTER":324.0494,"MEAN_ANOMALY":228.6682,"EPHEMERIS_TYPE":0,"CLASSIFICATION_TYPE":"U","NORAD_CAT_ID":28702,"ELEMENT_SET_NO":999,"REV_AT_EPOCH":5146,"BSTAR":0,"MEAN_MOTION_DOT":-2.08e-6,"MEAN_MOTION_DDOT":0},{"OBJECT_NAME":"GALAXY 16 (G-16)","OBJECT_ID":"2006-023A","EPOCH":"2026-04-27T06:37:28.968672","MEAN_MOTION":1.00273294,"ECCENTRICITY":0.00027908,"INCLINATION":0.0199,"RA_OF_ASC_NODE":226.5011,"ARG_OF_PERICENTER":167.8766,"MEAN_ANOMALY":181.2568,"EPHEMERIS_TYPE":0,"CLASSIFICATION_TYPE":"U","NORAD_CAT_ID":29236,"ELEMENT_SET_NO":999,"REV_AT_EPOCH":7246,"BSTAR":0,"MEAN_MOTION_DOT":-1.37e-6,"MEAN_MOTION_DDOT":0},{"OBJECT_NAME":"DIRECTV 9S","OBJECT_ID":"2006-043A","EPOCH":"2026-04-27T03:15:38.444832","MEAN_MOTION":1.00271726,"ECCENTRICITY":0.00042334,"INCLINATION":2.291,"RA_OF_ASC_NODE":81.4858,"ARG_OF_PERICENTER":330.2039,"MEAN_ANOMALY":111.1439,"EPHEMERIS_TYPE":0,"CLASSIFICATION_TYPE":"U","NORAD_CAT_ID":29494,"ELEMENT_SET_NO":999,"REV_AT_EPOCH":5087,"BSTAR":0,"MEAN_MOTION_DOT":-1.22e-6,"MEAN_MOTION_DDOT":0},{"OBJECT_NAME":"GALAXY 17 (G-17)","OBJECT_ID":"2007-016B","EPOCH":"2026-04-27T01:08:35.640672","MEAN_MOTION":1.00270879,"ECCENTRICITY":0.00043332,"INCLINATION":2.8449,"RA_OF_ASC_NODE":80.5166,"ARG_OF_PERICENTER":329.904,"MEAN_ANOMALY":96.7647,"EPHEMERIS_TYPE":0,"CLASSIFICATION_TYPE":"U","NORAD_CAT_ID":31307,"ELEMENT_SET_NO":999,"REV_AT_EPOCH":6929,"BSTAR":0,"MEAN_MOTION_DOT":-2.14e-6,"MEAN_MOTION_DDOT":0},{"OBJECT_NAME":"INTELSAT 11 (IS-11)","OBJECT_ID":"2007-044B","EPOCH":"2026-04-27T05:28:38.743680","MEAN_MOTION":0.9905305,"ECCENTRICITY":0.00013329,"INCLINATION":3.4349,"RA_OF_ASC_NODE":79.2641,"ARG_OF_PERICENTER":225.6244,"MEAN_ANOMALY":342.338,"EPHEMERIS_TYPE":0,"CLASSIFICATION_TYPE":"U","NORAD_CAT_ID":32253,"ELEMENT_SET_NO":999,"REV_AT_EPOCH":6794,"BSTAR":0,"MEAN_MOTION_DOT":-2.16e-6,"MEAN_MOTION_DDOT":0},{"OBJECT_NAME":"HORIZONS-2","OBJECT_ID":"2007-063B","EPOCH":"2026-04-27T03:06:38.648736","MEAN_MOTION":1.00272444,"ECCENTRICITY":0.00034597,"INCLINATION":2.4725,"RA_OF_ASC_NODE":81.2253,"ARG_OF_PERICENTER":322.6535,"MEAN_ANOMALY":144.1123,"EPHEMERIS_TYPE":0,"CLASSIFICATION_TYPE":"U","NORAD_CAT_ID":32388,"ELEMENT_SET_NO":999,"REV_AT_EPOCH":6730,"BSTAR":0,"MEAN_MOTION_DOT":-2.62e-6,"MEAN_MOTION_DDOT":0},{"OBJECT_NAME":"DIRECTV 11","OBJECT_ID":"2008-013A","EPOCH":"2026-04-27T00:08:38.777568","MEAN_MOTION":1.00271519,"ECCENTRICITY":3.082e-5,"INCLINATION":0.0159,"RA_OF_ASC_NODE":106.6815,"ARG_OF_PERICENTER":257.4247,"MEAN_ANOMALY":113.861,"EPHEMERIS_TYPE":0,"CLASSIFICATION_TYPE":"U","NORAD_CAT_ID":32729,"ELEMENT_SET_NO":999,"REV_AT_EPOCH":4508,"BSTAR":0,"MEAN_MOTION_DOT":-1.36e-6,"MEAN_MOTION_DDOT":0},{"OBJECT_NAME":"GALAXY 18 (G-18)","OBJECT_ID":"2008-024A","EPOCH":"2026-04-27T06:00:31.458240","MEAN_MOTION":1.00272012,"ECCENTRICITY":0.00032531,"INCLINATION":0.0156,"RA_OF_ASC_NODE":261.0535,"ARG_OF_PERICENTER":142.5227,"MEAN_ANOMALY":138.7919,"EPHEMERIS_TYPE":0,"CLASSIFICATION_TYPE":"U","NORAD_CAT_ID":32951,"ELEMENT_SET_NO":999,"REV_AT_EPOCH":4534,"BSTAR":0,"MEAN_MOTION_DOT":1.5e-7,"MEAN_MOTION_DDOT":0}]
